GLOBALSTAR M075         
1 37192U 10054E   24226.44518897 -.00000086  00000+0  10182-3 0  9993
2 37192  51.9958  38.5437 0000749  82.7515 294.8579 12.62262698637148
GLOBALSTAR M073         
1 37193U 10054F   24226.63220152 -.00000069  00000+0  19280-3 0  9998
2 37193  52.0075 311.5628 0000649 101.9648  45.1639 12.62267981638995
GLOBALSTAR M083         
1 37739U 11033A   24226.56281133 -.00000091  00000+0  68519-4 0  9995
2 37739  51.9841 260.9239 0000151 147.7086 345.3545 12.62263385608001
GLOBALSTAR M088         
1 37740U 11033B   24226.54488346 -.00000083  00000+0  11647-3 0  9990
2 37740  51.9723 166.7251 0000364  18.0994 153.9329 12.62266099603545
GLOBALSTAR M091         
1 37741U 11033C   24226.48109463 -.00000091  00000+0  70595-4 0  9991
2 37741  51.9994 129.9276 0000418  19.7978 160.5039 12.62265613604324
GLOBALSTAR M085         
1 37742U 11033D   24226.90607591 -.00000091  00000+0  69128-4 0  9994
2 37742  51.9865  79.9418 0000575  58.4246 315.3972 12.62264444605380
GLOBALSTAR M081         
1 37743U 11033E   24226.62057584 -.00000083  00000+0  11782-3 0  9998
2 37743  51.9957  83.4090 0000763  45.4556 349.9591 12.62267923605383
GLOBALSTAR M089         
1 37744U 11033F   24226.50205953 -.00000085  00000+0  10667-3 0  9994
2 37744  51.9941  38.0570 0001135  79.3681 315.6944 12.62267022605837
